[{"name":"\u963f\u5bcc\u6c57","phone_area_code":"+93","area_code":"AF"},{"name":"\u963f\u5c14\u5df4\u5c3c\u4e9a","phone_area_code":"+355","area_code":"AL"},{"name":"\u963f\u5c14\u53ca\u5229\u4e9a","phone_area_code":"+213","area_code":"DZ"},{"name":"\u7f8e\u5c5e\u8428\u6469\u4e9a","phone_area_code":"+684","area_code":"AS"},{"name":"\u5b89\u9053\u5c14","phone_area_code":"+376","area_code":"AD"},{"name":"\u5b89\u54e5\u62c9","phone_area_code":"+244","area_code":"AO"},{"name":"\u5b89\u572d\u62c9\u5c9b","phone_area_code":"+1264","area_code":"AI"},{"name":"\u5b89\u63d0\u74dc\u548c\u5df4\u5e03\u8fbe","phone_area_code":"+1268","area_code":"AG"},{"name":"\u963f\u6839\u5ef7","phone_area_code":"+54","area_code":"AR"},{"name":"\u4e9a\u7f8e\u5c3c\u4e9a","phone_area_code":"+374","area_code":"AM"},{"name":"\u963f\u9c81\u5df4","phone_area_code":"+297","area_code":"AW"},{"name":"\u6fb3\u5927\u5229\u4e9a","phone_area_code":"+61","area_code":"AU"},{"name":"\u5965\u5730\u5229","phone_area_code":"+43","area_code":"AT"},{"name":"\u963f\u585e\u62dc\u7586","phone_area_code":"+994","area_code":"AZ"},{"name":"\u5df4\u54c8\u9a6c\u7fa4\u5c9b","phone_area_code":"+1242","area_code":"BS"},{"name":"\u5df4\u6797","phone_area_code":"+973","area_code":"BH"},{"name":"\u5b5f\u52a0\u62c9\u5171\u548c\u56fd","phone_area_code":"+880","area_code":"BD"},{"name":"\u5df4\u5df4\u591a\u65af","phone_area_code":"+1246","area_code":"BB"},{"name":"\u767d\u4fc4\u7f57\u65af","phone_area_code":"+375","area_code":"BY"},{"name":"\u6bd4\u5229\u65f6","phone_area_code":"+32","area_code":"BE"},{"name":"\u4f2f\u5229\u5179","phone_area_code":"+501","area_code":"BZ"},{"name":"\u8d1d\u5b81","phone_area_code":"+229","area_code":"BJ"},{"name":"\u767e\u6155\u5927\u7fa4\u5c9b","phone_area_code":"+1441","area_code":"BM"},{"name":"\u4e0d\u4e39","phone_area_code":"+975","area_code":"BT"},{"name":"\u73bb\u5229\u7ef4\u4e9a","phone_area_code":"+591","area_code":"BO"},{"name":"\u6ce2\u9ed1(\u6ce2\u65af\u5c3c\u4e9a\u548c\u9ed1\u585e\u54e5\u7ef4\u90a3)","phone_area_code":"+387","area_code":"BA"},{"name":"\u535a\u8328\u74e6\u7eb3","phone_area_code":"+267","area_code":"BW"},{"name":"\u5df4\u897f","phone_area_code":"+55","area_code":"BR"},{"name":"\u6587\u83b1\u8fbe\u9c81\u8428\u5170\u56fd","phone_area_code":"+673","area_code":"BN"},{"name":"\u4fdd\u52a0\u5229\u4e9a","phone_area_code":"+359","area_code":"BG"},{"name":"\u5e03\u57fa\u7eb3\u6cd5\u7d22","phone_area_code":"+226","area_code":"BF"},{"name":"\u5e03\u9686\u8fea","phone_area_code":"+257","area_code":"BI"},{"name":"\u67ec\u57d4\u5be8","phone_area_code":"+855","area_code":"KH"},{"name":"\u5580\u9ea6\u9686","phone_area_code":"+237","area_code":"CM"},{"name":"\u52a0\u62ff\u5927","phone_area_code":"+1","area_code":"US"},{"name":"\u4f5b\u5f97\u89d2","phone_area_code":"+238","area_code":"CV"},{"name":"\u5f00\u66fc\u7fa4\u5c9b","phone_area_code":"+1345","area_code":"KY"},{"name":"\u4e2d\u975e\u5171\u548c\u56fd","phone_area_code":"+236","area_code":"CF"},{"name":"\u4e4d\u5f97","phone_area_code":"+235","area_code":"TD"},{"name":"\u667a\u5229","phone_area_code":"+56","area_code":"CL"},{"name":"\u4e2d\u56fd","phone_area_code":"+86","area_code":"CN"},{"name":"\u54e5\u4f26\u6bd4\u4e9a","phone_area_code":"+57","area_code":"CO"},{"name":"\u79d1\u6469\u7f57","phone_area_code":"+269","area_code":"KM"},{"name":"\u521a\u679c","phone_area_code":"+242","area_code":"CG"},{"name":"\u521a\u679c\u6c11\u4e3b\u5171\u548c\u56fd","phone_area_code":"+243","area_code":"ZR"},{"name":"\u5e93\u514b\u7fa4\u5c9b","phone_area_code":"+682","area_code":"CK"},{"name":"\u54e5\u65af\u8fbe\u9ece\u52a0","phone_area_code":"+506","area_code":"CR"},{"name":"\u79d1\u7279\u8fea\u74e6","phone_area_code":"+225","area_code":"KT"},{"name":"\u514b\u7f57\u5730\u4e9a","phone_area_code":"+385","area_code":"HR"},{"name":"\u53e4\u5df4","phone_area_code":"+53","area_code":"CU"},{"name":"\u585e\u6d66\u8def\u65af","phone_area_code":"+357","area_code":"CY"},{"name":"\u6377\u514b\u5171\u548c\u56fd","phone_area_code":"+420","area_code":"CZ"},{"name":"\u4e39\u9ea6","phone_area_code":"+45","area_code":"DK"},{"name":"\u5409\u5e03\u63d0","phone_area_code":"+253","area_code":"DJ"},{"name":"\u591a\u7c73\u5c3c\u514b","phone_area_code":"+1767","area_code":"DM"},{"name":"\u591a\u7c73\u5c3c\u52a0\u5171\u548c\u56fd","phone_area_code":"+1890","area_code":"DO"},{"name":"\u5384\u74dc\u591a\u5c14","phone_area_code":"+593","area_code":"EC"},{"name":"\u57c3\u53ca","phone_area_code":"+20","area_code":"EG"},{"name":"\u8428\u5c14\u74e6\u591a","phone_area_code":"+503","area_code":"SV"},{"name":"\u8d64\u9053\u51e0\u5185\u4e9a","phone_area_code":"+240","area_code":"GQ"},{"name":"\u5384\u7acb\u7279\u91cc\u4e9a","phone_area_code":"+291","area_code":"ER"},{"name":"\u7231\u6c99\u5c3c\u4e9a","phone_area_code":"+372","area_code":"EE"},{"name":"\u57c3\u585e\u4fc4\u6bd4\u4e9a","phone_area_code":"+251","area_code":"ET"},{"name":"\u798f\u514b\u5170\u7fa4\u5c9b","phone_area_code":"+500","area_code":"FK"},{"name":"\u6cd5\u7f57\u7fa4\u5c9b","phone_area_code":"+298","area_code":"FO"},{"name":"\u6590\u6d4e","phone_area_code":"+679","area_code":"FJ"},{"name":"\u82ac\u5170","phone_area_code":"+358","area_code":"FI"},{"name":"\u6cd5\u56fd","phone_area_code":"+33","area_code":"FR"},{"name":"\u6cd5\u5c5e\u572d\u4e9a\u90a3","phone_area_code":"+594","area_code":"GF"},{"name":"\u6cd5\u5c5e\u73bb\u5229\u5c3c\u897f\u4e9a","phone_area_code":"+689","area_code":"PF"},{"name":"\u52a0\u84ec","phone_area_code":"+241","area_code":"GA"},{"name":"\u5188\u6bd4\u4e9a","phone_area_code":"+220","area_code":"GM"},{"name":"\u683c\u9c81\u5409\u4e9a","phone_area_code":"+995","area_code":"GE"},{"name":"\u5fb7\u56fd","phone_area_code":"+49","area_code":"DE"},{"name":"\u52a0\u7eb3","phone_area_code":"+233","area_code":"UZ"},{"name":"\u76f4\u5e03\u7f57\u9640","phone_area_code":"+350","area_code":"GI"},{"name":"\u5e0c\u814a","phone_area_code":"+30","area_code":"GR"},{"name":"\u683c\u9675\u5170\u5c9b","phone_area_code":"+299","area_code":"GL"},{"name":"\u683c\u6797\u7eb3\u8fbe","phone_area_code":"+1809","area_code":"TT"},{"name":"\u74dc\u5fb7\u7f57\u666e","phone_area_code":"+590","area_code":"BL"},{"name":"\u5173\u5c9b","phone_area_code":"+671","area_code":"GU"},{"name":"\u5371\u5730\u9a6c\u62c9","phone_area_code":"+502","area_code":"GT"},{"name":"\u6839\u897f","phone_area_code":"+44","area_code":"GB"},{"name":"\u51e0\u5185\u4e9a","phone_area_code":"+675","area_code":"PG"},{"name":"\u51e0\u5185\u4e9a\u6bd4\u7ecd\u5171\u548c\u56fd","phone_area_code":"+245","area_code":"GW"},{"name":"\u572d\u4e9a\u90a3","phone_area_code":"+592","area_code":"GY"},{"name":"\u6d77\u5730","phone_area_code":"+509","area_code":"HT"},{"name":"\u6d2a\u90fd\u62c9\u65af","phone_area_code":"+504","area_code":"HN"},{"name":"\u4e2d\u56fd\u9999\u6e2f","phone_area_code":"+852","area_code":"HK"},{"name":"\u5308\u7259\u5229","phone_area_code":"+36","area_code":"HU"},{"name":"\u51b0\u5c9b","phone_area_code":"+354","area_code":"IS"},{"name":"\u5370\u5ea6","phone_area_code":"+91","area_code":"IN"},{"name":"\u5370\u5ea6\u5c3c\u897f\u4e9a","phone_area_code":"+62","area_code":"ID"},{"name":"\u4f0a\u6717","phone_area_code":"+98","area_code":"IR"},{"name":"\u4f0a\u62c9\u514b","phone_area_code":"+964","area_code":"IQ"},{"name":"\u7231\u5c14\u5170","phone_area_code":"+353","area_code":"IE"},{"name":"\u9a6c\u6069","phone_area_code":"+44","area_code":"GB"},{"name":"\u4ee5\u8272\u5217","phone_area_code":"+972","area_code":"IL"},{"name":"\u610f\u5927\u5229","phone_area_code":"+39","area_code":"IT"},{"name":"\u7259\u4e70\u52a0","phone_area_code":"+1876","area_code":"JM"},{"name":"\u65e5\u672c","phone_area_code":"+81","area_code":"JP"},{"name":"\u6cfd\u897f","phone_area_code":"+44","area_code":"GB"},{"name":"\u7ea6\u65e6","phone_area_code":"+962","area_code":"JO"},{"name":"\u54c8\u8428\u514b\u65af\u5766","phone_area_code":"+7","area_code":"RU"},{"name":"\u80af\u5c3c\u4e9a","phone_area_code":"+254","area_code":"KE"},{"name":"\u671d\u9c9c","phone_area_code":"+850","area_code":"KP"},{"name":"\u97e9\u56fd","phone_area_code":"+82","area_code":"KR"},{"name":"\u79d1\u7d22\u6c83","phone_area_code":"+381","area_code":"YU"},{"name":"\u79d1\u5a01\u7279","phone_area_code":"+965","area_code":"KW"},{"name":"\u5409\u5c14\u5409\u65af\u65af\u5766","phone_area_code":"+996","area_code":"KG"},{"name":"\u8001\u631d\u4eba\u6c11\u6c11\u4e3b\u5171\u548c\u56fd","phone_area_code":"+856","area_code":"LA"},{"name":"\u62c9\u8131\u7ef4\u4e9a","phone_area_code":"+371","area_code":"LV"},{"name":"\u9ece\u5df4\u5ae9","phone_area_code":"+961","area_code":"LB"},{"name":"\u83b1\u7d22\u6258","phone_area_code":"+266","area_code":"LS"},{"name":"\u5229\u6bd4\u91cc\u4e9a","phone_area_code":"+231","area_code":"LR"},{"name":"\u5229\u6bd4\u4e9a","phone_area_code":"+218","area_code":"LY"},{"name":"\u5217\u652f\u6566\u65af\u767b","phone_area_code":"+423","area_code":"LI"},{"name":"\u7acb\u9676\u5b9b","phone_area_code":"+370","area_code":"LT"},{"name":"\u5362\u68ee\u5821","phone_area_code":"+352","area_code":"LU"},{"name":"\u4e2d\u56fd\u6fb3\u95e8","phone_area_code":"+853","area_code":"MO"},{"name":"\u9a6c\u5176\u987f\u738b\u56fd","phone_area_code":"+389","area_code":"MK"},{"name":"\u9a6c\u8fbe\u52a0\u65af\u52a0","phone_area_code":"+261","area_code":"MG"},{"name":"\u9a6c\u62c9\u7ef4","phone_area_code":"+265","area_code":"MW"},{"name":"\u9a6c\u6765\u897f\u4e9a","phone_area_code":"+60","area_code":"MY"},{"name":"\u9a6c\u5c14\u4ee3\u592b","phone_area_code":"+960","area_code":"MV"},{"name":"\u9a6c\u91cc","phone_area_code":"+223","area_code":"ML"},{"name":"\u9a6c\u8033\u4ed6","phone_area_code":"+356","area_code":"MT"},{"name":"\u9a6c\u63d0\u5c3c\u514b","phone_area_code":"+596","area_code":"MQ"},{"name":"\u6bdb\u91cc\u5854\u5c3c\u4e9a","phone_area_code":"+222","area_code":"MR"},{"name":"\u6bdb\u91cc\u6c42\u65af","phone_area_code":"+230","area_code":"MU"},{"name":"\u58a8\u897f\u54e5","phone_area_code":"+52","area_code":"MX"},{"name":"\u6469\u5c14\u591a\u74e6","phone_area_code":"+373","area_code":"MD"},{"name":"\u6469\u7eb3\u54e5","phone_area_code":"+377","area_code":"MC"},{"name":"\u8499\u53e4","phone_area_code":"+976","area_code":"MN"},{"name":"\u9ed1\u5c71\u5171\u548c\u56fd","phone_area_code":"+382","area_code":"ME"},{"name":"\u8499\u7279\u585e\u62c9\u7279\u5c9b","phone_area_code":"+1664","area_code":"MS"},{"name":"\u6469\u6d1b\u54e5","phone_area_code":"+212","area_code":"MA"},{"name":"\u83ab\u6851\u6bd4\u514b","phone_area_code":"+258","area_code":"MZ"},{"name":"\u7f05\u7538","phone_area_code":"+95","area_code":"MM"},{"name":"\u7eb3\u7c73\u6bd4\u4e9a","phone_area_code":"+264","area_code":"NA"},{"name":"\u5c3c\u6cca\u5c14","phone_area_code":"+977","area_code":"NP"},{"name":"\u8377\u5170","phone_area_code":"+31","area_code":"NL"},{"name":"\u8377\u5c5e\u5b89\u7684\u5217\u65af\u7fa4\u5c9b","phone_area_code":"+599","area_code":"AN"},{"name":"\u65b0\u5580\u91cc\u591a\u5c3c\u4e9a","phone_area_code":"+687","area_code":"NC"},{"name":"\u65b0\u897f\u5170","phone_area_code":"+64","area_code":"NZ"},{"name":"\u5c3c\u52a0\u62c9\u74dc","phone_area_code":"+505","area_code":"NI"},{"name":"\u5c3c\u65e5\u5c14","phone_area_code":"+227","area_code":"NE"},{"name":"\u5c3c\u65e5\u5229\u4e9a","phone_area_code":"+234","area_code":"NG"},{"name":"\u632a\u5a01","phone_area_code":"+47","area_code":"NO"},{"name":"\u963f\u66fc","phone_area_code":"+968","area_code":"OM"},{"name":"\u5df4\u57fa\u65af\u5766","phone_area_code":"+92","area_code":"PK"},{"name":"\u5e15\u52b3","phone_area_code":"+680","area_code":"PW"},{"name":"\u5df4\u62ff\u9a6c","phone_area_code":"+507","area_code":"PA"},{"name":"\u5df4\u5e03\u4e9a\u65b0\u51e0\u5185\u4e9a","phone_area_code":"+675","area_code":"PG"},{"name":"\u5df4\u62c9\u572d","phone_area_code":"+595","area_code":"PY"},{"name":"\u79d8\u9c81","phone_area_code":"+51","area_code":"PE"},{"name":"\u83f2\u5f8b\u5bbe","phone_area_code":"+63","area_code":"PH"},{"name":"\u6ce2\u5170","phone_area_code":"+48","area_code":"PL"},{"name":"\u8461\u8404\u7259","phone_area_code":"+351","area_code":"PT"},{"name":"\u6ce2\u591a\u9ece\u5404","phone_area_code":"+1787","area_code":"PR"},{"name":"\u5361\u5854\u5c14","phone_area_code":"+974","area_code":"QA"},{"name":"\u7559\u5c3c\u65fa","phone_area_code":"+262","area_code":"RE"},{"name":"\u7f57\u9a6c\u5c3c\u4e9a","phone_area_code":"+40","area_code":"RO"},{"name":"\u4fc4\u7f57\u65af","phone_area_code":"+7","area_code":"RU"},{"name":"\u5362\u65fa\u8fbe","phone_area_code":"+250","area_code":"RW"},{"name":"\u5723\u57fa\u8328\u548c\u5c3c\u7ef4\u65af","phone_area_code":"+1869","area_code":"KN"},{"name":"\u5723\u5362\u897f\u4e9a\u5c9b","phone_area_code":"+1758","area_code":"LC"},{"name":"\u5723\u6587\u68ee\u7279\u548c\u683c\u6797\u7eb3\u4e01\u65af","phone_area_code":"+1784","area_code":"VC"},{"name":"\u8428\u6469\u4e9a\u7fa4\u5c9b","phone_area_code":"+684","area_code":"AS"},{"name":"\u5723\u9a6c\u529b\u8bfa","phone_area_code":"+378","area_code":"SM"},{"name":"\u6c99\u7279\u963f\u62c9\u4f2f","phone_area_code":"+966","area_code":"SA"},{"name":"\u585e\u5185\u52a0\u5c14","phone_area_code":"+221","area_code":"SN"},{"name":"\u585e\u5c14\u7ef4\u4e9a","phone_area_code":"+381","area_code":"YU"},{"name":"\u585e\u820c\u5c14","phone_area_code":"+248","area_code":"SC"},{"name":"\u585e\u62c9\u5229\u6602","phone_area_code":"+232","area_code":"SL"},{"name":"\u65b0\u52a0\u5761","phone_area_code":"+65","area_code":"SG"},{"name":"\u65af\u6d1b\u4f10\u514b","phone_area_code":"+421","area_code":"SK"},{"name":"\u65af\u6d1b\u6587\u5c3c\u4e9a","phone_area_code":"+386","area_code":"SI"},{"name":"\u6240\u7f57\u95e8\u7fa4\u5c9b","phone_area_code":"+677","area_code":"SB"},{"name":"\u7d22\u9a6c\u91cc","phone_area_code":"+252","area_code":"SO"},{"name":"\u5357\u975e","phone_area_code":"+27","area_code":"ZA"},{"name":"\u5357\u82cf\u4e39","phone_area_code":"+211","area_code":"SS"},{"name":"\u897f\u73ed\u7259","phone_area_code":"+34","area_code":"ES"},{"name":"\u65af\u91cc\u5170\u5361","phone_area_code":"+94","area_code":"LK"},{"name":"\u82cf\u4e39","phone_area_code":"+249","area_code":"SD"},{"name":"\u82cf\u91cc\u5357","phone_area_code":"+597","area_code":"SR"},{"name":"\u65af\u5a01\u58eb\u5170","phone_area_code":"+268","area_code":"SZ"},{"name":"\u745e\u5178","phone_area_code":"+46","area_code":"SE"},{"name":"\u745e\u58eb","phone_area_code":"+41","area_code":"CH"},{"name":"\u963f\u62c9\u4f2f\u53d9\u5229\u4e9a\u5171\u548c\u56fd","phone_area_code":"+963","area_code":"SY"},{"name":"\u4e2d\u56fd\u53f0\u6e7e","phone_area_code":"+886","area_code":"TW"},{"name":"\u5854\u5409\u514b\u65af\u5766","phone_area_code":"+992","area_code":"TJ"},{"name":"\u5766\u6851\u5c3c\u4e9a","phone_area_code":"+255","area_code":"TZ"},{"name":"\u6cf0\u56fd","phone_area_code":"+66","area_code":"TH"},{"name":"\u4e1c\u5e1d\u6c76","phone_area_code":"+670","area_code":"TL"},{"name":"\u591a\u54e5","phone_area_code":"+228","area_code":"TG"},{"name":"\u6c64\u52a0","phone_area_code":"+676","area_code":"TO"},{"name":"\u7279\u7acb\u5c3c\u8fbe\u548c\u591a\u5df4\u54e5","phone_area_code":"+1809","area_code":"TT"},{"name":"\u7a81\u5c3c\u65af","phone_area_code":"+216","area_code":"TN"},{"name":"\u571f\u8033\u5176","phone_area_code":"+90","area_code":"TR"},{"name":"\u571f\u5e93\u66fc\u65af\u5766","phone_area_code":"+993","area_code":"TM"},{"name":"\u7279\u514b\u65af\u548c\u51ef\u79d1\u65af\u7fa4\u5c9b","phone_area_code":"+1649","area_code":"TC"},{"name":"\u4e4c\u5e72\u8fbe","phone_area_code":"+256","area_code":"UG"},{"name":"\u4e4c\u514b\u5170","phone_area_code":"+380","area_code":"UA"},{"name":"\u963f\u62c9\u4f2f\u8054\u5408\u914b\u957f\u56fd","phone_area_code":"+971","area_code":"AE"},{"name":"\u82f1\u56fd","phone_area_code":"+44","area_code":"GB"},{"name":"\u7f8e\u56fd","phone_area_code":"+1","area_code":"US"},{"name":"\u4e4c\u62c9\u572d","phone_area_code":"+598","area_code":"UY"},{"name":"\u4e4c\u5179\u522b\u514b\u65af\u5766","phone_area_code":"+998","area_code":"UZ"},{"name":"\u74e6\u52aa\u963f\u56fe","phone_area_code":"+678","area_code":"VU"},{"name":"\u59d4\u5185\u745e\u62c9","phone_area_code":"+58","area_code":"VE"},{"name":"\u8d8a\u5357","phone_area_code":"+84","area_code":"VN"},{"name":"\u82f1\u5c5e\u7ef4\u5c14\u4eac\u7fa4\u5c9b","phone_area_code":"+1340","area_code":"VI"},{"name":"\u4e5f\u95e8","phone_area_code":"+967","area_code":"YE"},{"name":"\u8d5e\u6bd4\u4e9a","phone_area_code":"+260","area_code":"ZM"},{"name":"\u6d25\u5df4\u5e03\u97e6","phone_area_code":"+263","area_code":"ZW"}]